STARLINK-1569_new
1 16039C 20055N   21326.13124458 -.00003749  00000-0 -25125-3 0  3263
2 16039  53.0544 328.1630 0001734  60.1020  49.3876 15.06391661    18
STARLINK-1569_old
1 26039C 20055N   21325.17065910 -.00001474  00000-0 -98719-4 0  3255
2 26039  53.0545 332.4753 0001626  58.0547 239.2295 15.06407096    18
